{"type": "FeatureCollection", "features": [ {"type": "Feature", "properties": {"norad_id": 41836, "name": "HIMAWARI-9", "group": "weather", "lat": -0.014263858375486929, "lon": -89.26363610186066, "alt_km": 35780.78107918187, "timestamp": "2025-12-01T03:58:49.195465+00:00", "meta": {"OBJECT_NAME": "HIMAWARI-9", "OBJECT_ID": "2016-064A", "EPOCH": "2025-11-30T19:38:59.642304", "MEAN_MOTION": 1.00270471, "ECCENTRICITY": 0.0001399, "INCLINATION": 0.0565, "RA_OF_ASC_NODE": 97.6117, "ARG_OF_PERICENTER": 157.7907, "MEAN_ANOMALY": 250.0629, "EPHEMERIS_TYPE": 0, "CLASSIFICATION_TYPE": "U", "NORAD_CAT_ID": 41836, "ELEMENT_SET_NO": 999, "REV_AT_EPOCH": 3322, "BSTAR": 0, "MEAN_MOTION_DOT": -2.53e-06, "MEAN_MOTION_DDOT": 0, "GROUP": "weather"}, "tle": {"line1": "1 41836U 16064A   25334.81874586 -.00000253  00000+0  00000+0 0  9992", "line2": "2 41836   0.0565  97.6117 0001399 157.7907 250.0629  1.00270471 33225"}}, "geometry": {"type": "Point", "coordinates": [-89.26363610186066, -0.014263858375486929]}}, {"type": "Feature", "properties": {"norad_id": 41866, "name": "GOES 16", "group": "weather", "lat": -0.03283830688625234, "lon": 25.327990530326243, "alt_km": 35795.34845210614, "timestamp": "2025-12-01T03:58:49.195478+00:00", "meta": {"OBJECT_NAME": "GOES 16", "OBJECT_ID": "2016-071A", "EPOCH": "2025-11-30T15:03:30.047040", "MEAN_MOTION": 1.00270797, "ECCENTRICITY": 0.0003258, "INCLINATION": 0.0594, "RA_OF_ASC_NODE": 102.2755, "ARG_OF_PERICENTER": 152.4978, "MEAN_ANOMALY": 296.1977, "EPHEMERIS_TYPE": 0, "CLASSIFICATION_TYPE": "U", "NORAD_CAT_ID": 41866, "ELEMENT_SET_NO": 999, "REV_AT_EPOCH": 3311, "BSTAR": 0, "MEAN_MOTION_DOT": -6.9e-07, "MEAN_MOTION_DDOT": 0, "GROUP": "weather"}, "tle": {"line1": "1 41866U 16071A   25334.62743110 -.00000069  00000+0  00000+0 0  9995", "line2": "2 41866   0.0594 102.2755 0003258 152.4978 296.1977  1.00270797 33113"}}, "geometry": {"type": "Point", "coordinates": [25.327990530326243, -0.03283830688625234]}}, {"type": "Feature", "properties": {"norad_id": 41882, "name": "FENGYUN 4A", "group": "weather", "lat": 0.26631840749662816, "lon": -106.53363122652749, "alt_km": 35769.19068204684, "timestamp": "2025-12-01T03:58:49.195491+00:00", "meta": {"OBJECT_NAME": "FENGYUN 4A", "OBJECT_ID": "2016-077A", "EPOCH": "2025-11-28T14:29:25.325376", "MEAN_MOTION": 1.00262544, "ECCENTRICITY": 0.0004895, "INCLINATION": 1.8103, "RA_OF_ASC_NODE": 82.5211, "ARG_OF_PERICENTER": 153.8506, "MEAN_ANOMALY": 172.3173, "EPHEMERIS_TYPE": 0, "CLASSIFICATION_TYPE": "U", "NORAD_CAT_ID": 41882, "ELEMENT_SET_NO": 999, "REV_AT_EPOCH": 3291, "BSTAR": 0, "MEAN_MOTION_DOT": -3.37e-06, "MEAN_MOTION_DDOT": 0, "GROUP": "weather"}, "tle": {"line1": "1 41882U 16077A   25332.60376534 -.00000337  00000+0  00000+0 0  9995", "line2": "2 41882   1.8103  82.5211 0004895 153.8506 172.3173  1.00262544 32914"}}, "geometry": {"type": "Point", "coordinates": [-106.53363122652749, 0.26631840749662816]}}, {"type": "Feature", "properties": {"norad_id": 41884, "name": "CYGFM05", "group": "weather", "lat": -23.164498181288838, "lon": -19.534147299907268, "alt_km": 432.58120111234985, "timestamp": "2025-12-01T03:58:49.195502+00:00", "meta": {"OBJECT_NAME": "CYGFM05", "OBJECT_ID": "2016-078A", "EPOCH": "2025-11-30T19:16:35.357664", "MEAN_MOTION": 15.46974865, "ECCENTRICITY": 0.0009451, "INCLINATION": 34.9577, "RA_OF_ASC_NODE": 125.0652, "ARG_OF_PERICENTER": 67.1584, "MEAN_ANOMALY": 293.0135, "EPHEMERIS_TYPE": 0, "CLASSIFICATION_TYPE": "U", "NORAD_CAT_ID": 41884, "ELEMENT_SET_NO": 999, "REV_AT_EPOCH": 49791, "BSTAR": 0.00039035, "MEAN_MOTION_DOT": 0.00020331, "MEAN_MOTION_DDOT": 0, "GROUP": "weather"}, "tle": {"line1": "1 41884U 16078A   25334.80318701  .00020331  00000+0  39035-3 0  9993", "line2": "2 41884  34.9577 125.0652 0009451  67.1584 293.0135 15.46974865497911"}}, "geometry": {"type": "Point", "coordinates": [-19.534147299907268, -23.164498181288838]}}, {"type": "Feature", "properties": {"norad_id": 41885, "name": "CYGFM04", "group": "weather", "lat": -5.36181819273269, "lon": 90.07356148050376, "alt_km": 419.8517798722214, "timestamp": "2025-12-01T03:58:49.195512+00:00", "meta": {"OBJECT_NAME": "CYGFM04", "OBJECT_ID": "2016-078B", "EPOCH": "2025-11-30T18:44:34.332288", "MEAN_MOTION": 15.4944068, "ECCENTRICITY": 0.0008524, "INCLINATION": 34.9334, "RA_OF_ASC_NODE": 100.3233, "ARG_OF_PERICENTER": 98.1521, "MEAN_ANOMALY": 262.0167, "EPHEMERIS_TYPE": 0, "CLASSIFICATION_TYPE": "U", "NORAD_CAT_ID": 41885, "ELEMENT_SET_NO": 999, "REV_AT_EPOCH": 49808, "BSTAR": 0.0011186, "MEAN_MOTION_DOT": 0.00063956, "MEAN_MOTION_DDOT": 0, "GROUP": "weather"}, "tle": {"line1": "1 41885U 16078B   25334.78095292  .00063956  00000+0  11186-2 0  9994", "line2": "2 41885  34.9334 100.3233 0008524  98.1521 262.0167 15.49440680498085"}}, "geometry": {"type": "Point", "coordinates": [90.07356148050376, -5.36181819273269]}}, {"type": "Feature", "properties": {"norad_id": 41886, "name": "CYGFM02", "group": "weather", "lat": -27.349128759464968, "lon": 48.47853924782482, "alt_km": 421.6931937487725, "timestamp": "2025-12-01T03:58:49.195522+00:00", "meta": {"OBJECT_NAME": "CYGFM02", "OBJECT_ID": "2016-078C", "EPOCH": "2025-11-30T17:23:45.540960", "MEAN_MOTION": 15.50941936, "ECCENTRICITY": 0.0010096, "INCLINATION": 34.9425, "RA_OF_ASC_NODE": 99.1725, "ARG_OF_PERICENTER": 96.3258, "MEAN_ANOMALY": 263.8614, "EPHEMERIS_TYPE": 0, "CLASSIFICATION_TYPE": "U", "NORAD_CAT_ID": 41886, "ELEMENT_SET_NO": 999, "REV_AT_EPOCH": 49820, "BSTAR": 0.00042084, "MEAN_MOTION_DOT": 0.00025242, "MEAN_MOTION_DDOT": 0, "GROUP": "weather"}, "tle": {"line1": "1 41886U 16078C   25334.72483265  .00025242  00000+0  42084-3 0  9998", "line2": "2 41886  34.9425  99.1725 0010096  96.3258 263.8614 15.50941936498204"}}, "geometry": {"type": "Point", "coordinates": [48.47853924782482, -27.349128759464968]}}, {"type": "Feature", "properties": {"norad_id": 41887, "name": "CYGFM01", "group": "weather", "lat": -30.85578950483578, "lon": 3.9684218083564002, "alt_km": 432.0115919236496, "timestamp": "2025-12-01T03:58:49.195532+00:00", "meta": {"OBJECT_NAME": "CYGFM01", "OBJECT_ID": "2016-078D", "EPOCH": "2025-11-30T19:11:32.016768", "MEAN_MOTION": 15.4753428, "ECCENTRICITY": 0.0009188, "INCLINATION": 34.9409, "RA_OF_ASC_NODE": 127.5212, "ARG_OF_PERICENTER": 58.3737, "MEAN_ANOMALY": 301.788, "EPHEMERIS_TYPE": 0, "CLASSIFICATION_TYPE": "U", "NORAD_CAT_ID": 41887, "ELEMENT_SET_NO": 999, "REV_AT_EPOCH": 49785, "BSTAR": 0.00038777, "MEAN_MOTION_DOT": 0.00020593, "MEAN_MOTION_DDOT": 0, "GROUP": "weather"}, "tle": {"line1": "1 41887U 16078D   25334.79967612  .00020593  00000+0  38777-3 0  9997", "line2": "2 41887  34.9409 127.5212 0009188  58.3737 301.7880 15.47534280497857"}}, "geometry": {"type": "Point", "coordinates": [3.9684218083564002, -30.85578950483578]}}, {"type": "Feature", "properties": {"norad_id": 41888, "name": "CYGFM08", "group": "weather", "lat": -30.493995453390163, "lon": -14.24696990988839, "alt_km": 428.8453292048471, "timestamp": "2025-12-01T03:58:49.195542+00:00", "meta": {"OBJECT_NAME": "CYGFM08", "OBJECT_ID": "2016-078E", "EPOCH": "2025-11-30T19:12:16.028064", "MEAN_MOTION": 15.48703146, "ECCENTRICITY": 0.0010682, "INCLINATION": 34.944, "RA_OF_ASC_NODE": 110.6454, "ARG_OF_PERICENTER": 84.8508, "MEAN_ANOMALY": 275.3432, "EPHEMERIS_TYPE": 0, "CLASSIFICATION_TYPE": "U", "NORAD_CAT_ID": 41888, "ELEMENT_SET_NO": 999, "REV_AT_EPOCH": 49808, "BSTAR": 0.00040525, "MEAN_MOTION_DOT": 0.00022444, "MEAN_MOTION_DDOT": 0, "GROUP": "weather"}, "tle": {"line1": "1 41888U 16078E   25334.80018551  .00022444  00000+0  40525-3 0  9990", "line2": "2 41888  34.9440 110.6454 0010682  84.8508 275.3432 15.48703146498080"}}, "geometry": {"type": "Point", "coordinates": [-14.24696990988839, -30.493995453390163]}}, {"type": "Feature", "properties": {"norad_id": 41890, "name": "CYGFM07", "group": "weather", "lat": -14.63177499472052, "lon": -60.75004079697408, "alt_km": 420.2380659612645, "timestamp": "2025-12-01T03:58:49.195551+00:00", "meta": {"OBJECT_NAME": "CYGFM07", "OBJECT_ID": "2016-078G", "EPOCH": "2025-11-30T17:49:01.492032", "MEAN_MOTION": 15.49267221, "ECCENTRICITY": 0.0008853, "INCLINATION": 34.946, "RA_OF_ASC_NODE": 100.0691, "ARG_OF_PERICENTER": 103.8704, "MEAN_ANOMALY": 256.3004, "EPHEMERIS_TYPE": 0, "CLASSIFICATION_TYPE": "U", "NORAD_CAT_ID": 41890, "ELEMENT_SET_NO": 999, "REV_AT_EPOCH": 49809, "BSTAR": 0.00041649, "MEAN_MOTION_DOT": 0.00023518, "MEAN_MOTION_DDOT": 0, "GROUP": "weather"}, "tle": {"line1": "1 41890U 16078G   25334.74237838  .00023518  00000+0  41649-3 0  9998", "line2": "2 41890  34.9460 100.0691 0008853 103.8704 256.3004 15.49267221498093"}}, "geometry": {"type": "Point", "coordinates": [-60.75004079697408, -14.63177499472052]}}, {"type": "Feature", "properties": {"norad_id": 41891, "name": "CYGFM03", "group": "weather", "lat": 23.739712093980614, "lon": 138.2520645967866, "alt_km": 410.7018061650315, "timestamp": "2025-12-01T03:58:49.195561+00:00", "meta": {"OBJECT_NAME": "CYGFM03", "OBJECT_ID": "2016-078H", "EPOCH": "2025-11-30T18:30:32.467104", "MEAN_MOTION": 15.49175614, "ECCENTRICITY": 0.0008236, "INCLINATION": 34.9415, "RA_OF_ASC_NODE": 101.7929, "ARG_OF_PERICENTER": 89.1468, "MEAN_ANOMALY": 271.0198, "EPHEMERIS_TYPE": 0, "CLASSIFICATION_TYPE": "U", "NORAD_CAT_ID": 41891, "ELEMENT_SET_NO": 999, "REV_AT_EPOCH": 49807, "BSTAR": 0.00042103, "MEAN_MOTION_DOT": 0.00023694, "MEAN_MOTION_DDOT": 0, "GROUP": "weather"}, "tle": {"line1": "1 41891U 16078H   25334.77120911  .00023694  00000+0  42103-3 0  9996", "line2": "2 41891  34.9415 101.7929 0008236  89.1468 271.0198 15.49175614498074"}}, "geometry": {"type": "Point", "coordinates": [138.2520645967866, 23.739712093980614]}}]}